LEMUR-1                 
1 40044U 14033AL  26154.21328239  .00002741  00000+0  31928-3 0  9990
2 40044  97.7865 304.3309 0049636 123.2114 237.3875 14.85184190643391
LEMUR-2-GREENBERG       
1 42837U 17042N   26154.49338043  .00017995  00000+0  60406-3 0  9999
2 42837  97.3812 335.1863 0009760  60.5923 299.6292 15.30877097486297
LEMUR-2-ANDIS           
1 42838U 17042P   26154.48827815  .00023274  00000+0  70175-3 0  9990
2 42838  97.3674 335.3193 0009334  60.3374 299.8797 15.34265628486351
LEMUR-2-MONSON          
1 42839U 17042Q   26154.73473101  .00016706  00000+0  62000-3 0  9994
2 42839  97.4072 335.4184 0007420  51.6245 308.5660 15.27631553486117
LEMUR-2-FURIAUS         
1 42840U 17042R   26154.47740706  .00019631  00000+0  68162-3 0  9990
2 42840  97.3767 333.1571 0008641 110.8985 249.3182 15.29771695486114
LEMUR-2-PETERG          
1 42841U 17042S   26154.46388141  .00026992  00000+0  83921-3 0  9999
2 42841  97.3985 339.4785 0004322  45.9845 314.1753 15.33294730486332
LEMUR-2-DEMBITZ         
1 42842U 17042T   26154.49784861  .00018919  00000+0  65539-3 0  9997
2 42842  97.3820 336.1898 0007786  72.8986 287.3107 15.29861497486252
LEMUR-2-ZACHARY         
1 42845U 17042W   26154.50072347  .00047625  00000+0  87678-3 0  9995
2 42845  97.3611 345.8581 0003838  77.7019 282.4661 15.49027790487089
LEMUR-2-KADI            
1 43184U 18014E   26154.32370688  .03743155  24768-5  16818-2 0  9995
2 43184  97.4341  85.7610 0009983 210.8841 149.1863 16.22065807458893
LEMUR-2-AMANDA-SVANTE   
1 48269U 21034B   26154.20125362  .00037150  00000+0  11484-2 0  9993
2 48269  97.5762 232.1278 0000743 295.0609  65.0555 15.33418553278918
LEMUR-2-SPECIAL-K       
1 48273U 21034F   26154.82957527  .00139635  00000+0  16556-2 0  9998
2 48273  97.5655 240.7597 0002509 235.5692 124.5328 15.60747788279607
LEMUR-2-EMBRIONOVIS     
1 56970U 23084AQ  26154.33801694  .00015314  00000+0  42212-3 0  9993
2 56970  97.6280 298.0109 0008757  12.9758 347.1709 15.37184868165553
LEMUR-2-DEVERILL-M-T    
1 57391U 23100F   26154.58492625  .00027786  00000+0  71891-3 0  9998
2 57391  99.4476 189.4236 0007538  91.9764 268.2338 15.39045889159153
LEMUR-2-BASS            
1 58259U 23174D   26154.20116083  .00019934  00000+0  45936-3 0  9990
2 58259  97.3849 238.7237 0006629 209.3581 150.7295 15.42608910143209
LEMUR-2-JK0903EM1407    
1 58336U 23174CJ  26154.21096787  .00030393  00000+0  52485-3 0  9994
2 58336  97.3911 244.2978 0005853 157.9931 202.1574 15.50932470143565
LEMUR-2-MJR092620       
1 58340U 23174CN  26154.23035723  .00022083  00000+0  47992-3 0  9998
2 58340  97.3972 244.0089 0006697 158.4344 201.7188 15.44335090143495
LEMUR-2-NIMBUS2000      
1 58899U 24022A   26154.56154556  .00018293  00000+0  46643-3 0  9992
2 58899  97.4115   4.3959 0009618 158.4681 201.6971 15.39536048130177
LEMUR-2-VALHALLA        
1 58900U 24022B   26154.88004841  .00017171  00000+0  44204-3 0  9996
2 58900  97.4114   4.7158 0010263 153.7168 206.4601 15.39247422130224
LEMUR-2-OBA-NI-JESU     
1 58902U 24022D   26154.58445097  .00702278  22996-3  13245-2 0  9998
2 58902  97.3768  18.6252 0004423 171.0894 189.0464 16.00847079131147
LEMUR-2-CAEL            
1 58903U 24022E   26154.57620743  .00018597  00000+0  45938-3 0  9998
2 58903  97.4098   5.3207 0008902 138.0371 222.1559 15.40506014130245
LEMUR-2-JOHNNYTRUONG    
1 59146U 24043BA  26153.71674366  .00041716  00000+0  52884-3 0  9993
2 59146  97.5373 304.5368 0004267 221.4985 138.5947 15.59343752125784
LEMUR-2-TOMATOKECHUP    
1 60471U 24149D   26154.23011049  .00012306  00000+0  35632-3 0  9999
2 60471  97.3801 236.2448 0000172 277.6232  82.4992 15.35726512100020
LEMUR-2-STELLA          
1 60533U 24149BT  26154.77678173  .00013306  00000+0  78877-3 0  9993
2 60533  97.6744 237.1777 0001930 107.4795 252.6646 15.11502384 98475
LEMUR-2-MARHISYAM       
1 60536U 24149BW  26154.22249308  .00012853  00000+0  77357-3 0  9998
2 60536  97.6883 237.0548 0003024 140.8634 219.2814 15.10956429 98373
LEMUR-2-AHMED-ASRAR     
1 60576U 24149DN  26154.46840119  .00013530  00000+0  78265-3 0  9997
2 60576  97.6997 239.3410 0002863  73.6698 286.4847 15.12381793 98492
LEMUR-2-LLOYD           
1 60577U 24149DP  26154.84739074  .00012459  00000+0  79199-3 0  9993
2 60577  97.6741 235.9718 0004089 177.6950 182.4298 15.08964794 98387
LEMUR-2-SQUIRRELCOMM    
1 60578U 24149DQ  26154.17959748  .00007706  00000+0  51868-3 0  9994
2 60578  97.6702 235.1362 0006694 100.1795 260.0188 15.06978397 98297
LEMUR-2-SIERRINI        
1 60579U 24149DR  26154.17684562  .00013311  00000+0  80803-3 0  9994
2 60579  97.6846 236.7107 0004638 210.6657 149.4302 15.10632468 98346
LEMUR-2-WILSON          
1 62694U 25009CP  26154.17459052  .00003250  00000+0  30154-3 0  9999
2 62694  97.7030 232.8857 0004987  88.4180 271.7612 14.95104153 75266
LEMUR-2-STAR-FOX        
1 62696U 25009CR  26154.17297975  .00009446  00000+0  71960-3 0  9998
2 62696  97.6940 235.8850 0002393 151.5661 208.5695 15.02275048 75459
