OBJECT_NAME,OBJECT_ID,EPOCH,MEAN_MOTION,ECCENTRICITY,INCLINATION,RA_OF_ASC_NODE,ARG_OF_PERICENTER,MEAN_ANOMALY,EPHEMERIS_TYPE,CLASSIFICATION_TYPE,NORAD_CAT_ID,ELEMENT_SET_NO,REV_AT_EPOCH,BSTAR,MEAN_MOTION_DOT,MEAN_MOTION_DDOT
LEMUR-1,2014-033AL,2026-06-03T05:07:07.598496,14.85184190,.00496362,97.7865,304.3309,123.2114,237.3875,0,U,40044,999,64339,.3192753E-3,.2741E-4,0
LEMUR-2-GREENBERG,2017-042N,2026-06-03T11:50:28.069152,15.30877097,.000976,97.3812,335.1863,60.5923,299.6292,0,U,42837,999,48629,.60406E-3,.17995E-3,0
LEMUR-2-ANDIS,2017-042P,2026-06-03T11:43:07.232160,15.34265628,.00093341,97.3674,335.3193,60.3374,299.8797,0,U,42838,999,48635,.7017506E-3,.23274E-3,0
LEMUR-2-MONSON,2017-042Q,2026-06-03T17:38:00.759264,15.27631553,.000742,97.4072,335.4184,51.6245,308.5660,0,U,42839,999,48611,.62000035E-3,.16706E-3,0
LEMUR-2-FURIAUS,2017-042R,2026-06-03T11:27:27.969984,15.29771695,.00086414,97.3767,333.1571,110.8985,249.3182,0,U,42840,999,48611,.68161825E-3,.19631E-3,0
LEMUR-2-PETERG,2017-042S,2026-06-03T11:07:59.353824,15.33294730,.00043229,97.3985,339.4785,45.9845,314.1753,0,U,42841,999,48633,.83920635E-3,.26992E-3,0
LEMUR-2-DEMBITZ,2017-042T,2026-06-03T11:56:54.119904,15.29861497,.0007786,97.3820,336.1898,72.8986,287.3107,0,U,42842,999,48625,.65539E-3,.18919E-3,0
LEMUR-2-ZACHARY,2017-042W,2026-06-03T12:01:02.507808,15.49027790,.0003838,97.3611,345.8581,77.7019,282.4661,0,U,42845,999,48708,.87678E-3,.47625E-3,0
LEMUR-2-KADI,2018-014E,2026-06-03T07:46:08.274432,16.22065807,.00099834,97.4341,85.7610,210.8841,149.1863,0,U,43184,999,45889,.16818226E-2,.3743155E-1,.2476797E-5
LEMUR-2-AMANDA-SVANTE,2021-034B,2026-06-03T04:49:48.312768,15.33418553,.0000743,97.5762,232.1278,295.0609,65.0555,0,U,48269,999,27891,.11484E-2,.3715E-3,0
LEMUR-2-SPECIAL-K,2021-034F,2026-06-03T19:54:35.303328,15.60747788,.00025093,97.5655,240.7597,235.5692,124.5328,0,U,48273,999,27960,.16555781E-2,.139635E-2,0
LEMUR-2-EMBRIONOVIS,2023-084AQ,2026-06-03T08:06:44.663616,15.37184868,.00087571,97.6280,298.0109,12.9758,347.1709,0,U,56970,999,16555,.42211645E-3,.15314E-3,0
LEMUR-2-DEVERILL-M-T,2023-100F,2026-06-03T14:02:17.628000,15.39045889,.00075383,99.4476,189.4236,91.9764,268.2338,0,U,57391,999,15915,.71890992E-3,.27786E-3,0
LEMUR-2-BASS,2023-174D,2026-06-03T04:49:40.295712,15.42608910,.0006629,97.3849,238.7237,209.3581,150.7295,0,U,58259,999,14320,.45936E-3,.19934E-3,0
LEMUR-2-JK0903EM1407,2023-174CJ,2026-06-03T05:03:47.623968,15.50932470,.0005853,97.3911,244.2978,157.9931,202.1574,0,U,58336,999,14356,.52485E-3,.30393E-3,0
LEMUR-2-MJR092620,2023-174CN,2026-06-03T05:31:42.864672,15.44335090,.0006697,97.3972,244.0089,158.4344,201.7188,0,U,58340,999,14349,.47992E-3,.22083E-3,0
LEMUR-2-NIMBUS2000,2024-022A,2026-06-03T13:28:37.536384,15.39536048,.00096189,97.4115,4.3959,158.4681,201.6971,0,U,58899,999,13017,.46642509E-3,.18293E-3,0
LEMUR-2-VALHALLA,2024-022B,2026-06-03T21:07:16.182624,15.39247422,.00102635,97.4114,4.7158,153.7168,206.4601,0,U,58900,999,13022,.44204405E-3,.17171E-3,0
LEMUR-2-OBA-NI-JESU,2024-022D,2026-06-03T14:01:36.563808,16.00847079,.00044232,97.3768,18.6252,171.0894,189.0464,0,U,58902,999,13114,.13245484E-2,.702278E-2,.22995525E-3
LEMUR-2-CAEL,2024-022E,2026-06-03T13:49:44.321952,15.40506014,.00089026,97.4098,5.3207,138.0371,222.1559,0,U,58903,999,13024,.45938407E-3,.18597E-3,0
LEMUR-2-JOHNNYTRUONG,2024-043BA,2026-06-02T17:12:06.652224,15.59343752,.00042672,97.5373,304.5368,221.4985,138.5947,0,U,59146,999,12578,.52884291E-3,.41716E-3,0
LEMUR-2-TOMATOKECHUP,2024-149D,2026-06-03T05:31:21.546336,15.35726512,.0000172,97.3801,236.2448,277.6232,82.4992,0,U,60471,999,10002,.35632E-3,.12306E-3,0
LEMUR-2-STELLA,2024-149BT,2026-06-03T18:38:33.941472,15.11502384,.00019303,97.6744,237.1777,107.4795,252.6646,0,U,60533,999,9847,.78876653E-3,.13306E-3,0
LEMUR-2-MARHISYAM,2024-149BW,2026-06-03T05:20:23.402112,15.10956429,.0003024,97.6883,237.0548,140.8634,219.2814,0,U,60536,999,9837,.77357E-3,.12853E-3,0
LEMUR-2-AHMED-ASRAR,2024-149DN,2026-06-03T11:14:29.862816,15.12381793,.00028632,97.6997,239.3410,73.6698,286.4847,0,U,60576,999,9849,.78265336E-3,.1353E-3,0
LEMUR-2-LLOYD,2024-149DP,2026-06-03T20:20:14.559936,15.08964794,.00040896,97.6741,235.9718,177.6950,182.4298,0,U,60577,999,9838,.79198918E-3,.12459E-3,0
LEMUR-2-SQUIRRELCOMM,2024-149DQ,2026-06-03T04:18:37.222272,15.06978397,.0006694,97.6702,235.1362,100.1795,260.0188,0,U,60578,999,9829,.51868E-3,.7706E-4,0
LEMUR-2-SIERRINI,2024-149DR,2026-06-03T04:14:39.461568,15.10632468,.00046387,97.6846,236.7107,210.6657,149.4302,0,U,60579,999,9834,.80802606E-3,.13311E-3,0
LEMUR-2-WILSON,2025-009CP,2026-06-03T04:11:24.620928,14.95104153,.00049873,97.7030,232.8857,88.4180,271.7612,0,U,62694,999,7526,.30154459E-3,.325E-4,0
LEMUR-2-STAR-FOX,2025-009CR,2026-06-03T04:09:05.450400,15.02275048,.00023939,97.6940,235.8850,151.5661,208.5695,0,U,62696,999,7545,.71960024E-3,.9446E-4,0
